[
  {
    "name": "STARLINK-31770",
    "noradId": "59601",
    "line1": "1 59601U 24080A   26179.87467742  .00002431  00000+0  97842-4 0  9998",
    "line2": "2 59601  43.0020 130.2800 0001480 269.7663  90.3019 15.27572813122747"
  },
  {
    "name": "STARLINK-31778",
    "noradId": "59602",
    "line1": "1 59602U 24080B   26179.54950292 -.00000084  00000+0  64661-5 0  9997",
    "line2": "2 59602  43.0008 128.6792 0000973 264.1557  95.9184 15.27578786121526"
  },
  {
    "name": "STARLINK-31776",
    "noradId": "59603",
    "line1": "1 59603U 24080C   26179.93828164  .00001490  00000+0  63686-4 0  9999",
    "line2": "2 59603  43.0009 133.3531 0001193 211.8399 148.2381 15.27570495121508"
  },
  {
    "name": "STARLINK-31765",
    "noradId": "59604",
    "line1": "1 59604U 24080D   26179.91097790  .00000129  00000+0  14213-4 0  9991",
    "line2": "2 59604  42.9980 126.2277 0001001 211.6517 148.4275 15.27581863121584"
  },
  {
    "name": "STARLINK-31767",
    "noradId": "59605",
    "line1": "1 59605U 24080E   26179.86697620  .00001175  00000+0  52241-4 0  9999",
    "line2": "2 59605  43.0038 130.2238 0001555 285.0489  75.0190 15.27564088121536"
  },
  {
    "name": "STARLINK-31782",
    "noradId": "59606",
    "line1": "1 59606U 24080F   26179.94856195  .00000618  00000+0  31965-4 0  9994",
    "line2": "2 59606  42.9990 133.4282 0001175 257.3547 102.7173 15.27576269121501"
  },
  {
    "name": "STARLINK-31755",
    "noradId": "59607",
    "line1": "1 59607U 24080G   26179.88703308  .00000534  00000+0  28922-4 0  9991",
    "line2": "2 59607  43.0011 133.8315 0000733 244.2500 115.8276 15.27572988121493"
  },
  {
    "name": "STARLINK-31585",
    "noradId": "59608",
    "line1": "1 59608U 24080H   26179.55451539 -.00002781  00000+0 -91644-4 0  9991",
    "line2": "2 59608  43.0020 127.8543 0000778 251.8743 108.2024 15.27556141121548"
  },
  {
    "name": "STARLINK-31667",
    "noradId": "59609",
    "line1": "1 59609U 24080J   26179.88528539  .00000113  00000+0  13630-4 0  9997",
    "line2": "2 59609  43.0030 126.0339 0000859 270.9059  89.1695 15.27570326121582"
  },
  {
    "name": "STARLINK-31729",
    "noradId": "59610",
    "line1": "1 59610U 24080K   26179.87129630 -.00001223  00000+0 -34957-4 0  9997",
    "line2": "2 59610  43.0007 126.7927 0000791 264.1761  95.9001 15.27572252121573"
  },
  {
    "name": "STARLINK-31448",
    "noradId": "59611",
    "line1": "1 59611U 24080L   26179.13659366  .00008228  00000+0  30810-3 0  9994",
    "line2": "2 59611  43.0030 130.7400 0001381 280.3013  79.7683 15.27589754121466"
  },
  {
    "name": "STARLINK-31748",
    "noradId": "59612",
    "line1": "1 59612U 24080M   26179.90200319  .00001639  00000+0  69120-4 0  9996",
    "line2": "2 59612  43.0060 126.1709 0001422 277.1900  82.8790 15.27565795122752"
  },
  {
    "name": "STARLINK-31746",
    "noradId": "59613",
    "line1": "1 59613U 24080N   26179.89087730  .00002601  00000+0  10404-3 0  9995",
    "line2": "2 59613  43.0010 133.8331 0000932 262.5160  97.5585 15.27565995121492"
  },
  {
    "name": "STARLINK-31762",
    "noradId": "59614",
    "line1": "1 59614U 24080P   26179.92848937  .00001452  00000+0  62287-4 0  9994",
    "line2": "2 59614  43.0035 129.8238 0002039 291.7630  68.3005 15.27577981121544"
  },
  {
    "name": "STARLINK-31768",
    "noradId": "59616",
    "line1": "1 59616U 24080R   26179.92592506  .00003537  00000+0  13801-3 0  9997",
    "line2": "2 59616  43.0014 129.8006 0002303 271.2926  88.7662 15.27581100121544"
  },
  {
    "name": "STARLINK-31769",
    "noradId": "59617",
    "line1": "1 59617U 24080S   26179.87852079  .00001373  00000+0  59418-4 0  9997",
    "line2": "2 59617  43.0003 130.3039 0001301 267.7375  92.3327 15.27571827121534"
  },
  {
    "name": "STARLINK-31784",
    "noradId": "59618",
    "line1": "1 59618U 24080T   26179.94213544 -.00000131  00000+0  47534-5 0  9993",
    "line2": "2 59618  43.0007 133.3806 0001163 264.1936  95.8783 15.27574916121507"
  },
  {
    "name": "STARLINK-31777",
    "noradId": "59619",
    "line1": "1 59619U 24080U   26179.94599372  .00000537  00000+0  29026-4 0  9994",
    "line2": "2 59619  43.0026 133.4118 0001192 256.8387 103.2331 15.27573064121502"
  },
  {
    "name": "STARLINK-31758",
    "noradId": "59621",
    "line1": "1 59621U 24080W   26179.56347435  .00005210  00000+0  19862-3 0  9995",
    "line2": "2 59621  43.0020 127.9195 0000539 295.0262  65.0533 15.27594868121530"
  },
  {
    "name": "STARLINK-31774",
    "noradId": "59622",
    "line1": "1 59622U 24080X   26179.14304871  .00000904  00000+0  42388-4 0  9992",
    "line2": "2 59622  43.0035 130.7866 0002140 275.1596  84.9012 15.27576093121467"
  },
  {
    "name": "STARLINK-31763",
    "noradId": "59623",
    "line1": "1 59623U 24080Y   26179.88237622  .00001018  00000+0  46514-4 0  9995",
    "line2": "2 59623  43.0016 130.3333 0001043 256.9905 103.0831 15.27570350121534"
  },
  {
    "name": "STARLINK-31749",
    "noradId": "59631",
    "line1": "1 59631U 24082A   26179.50550087 -.00002407  00000+0 -78064-4 0  9998",
    "line2": "2 59631  42.9980 233.6497 0000907 286.1754  73.8998 15.27542606121962"
  },
  {
    "name": "STARLINK-31781",
    "noradId": "59632",
    "line1": "1 59632U 24082B   26179.79587494  .00000768  00000+0  37445-4 0  9996",
    "line2": "2 59632  43.0038 218.2281 0001189 274.2861  85.7855 15.27575279122001"
  },
  {
    "name": "STARLINK-31541",
    "noradId": "59633",
    "line1": "1 59633U 24082C   26179.58209871 -.00002987  00000+0 -99058-4 0  9999",
    "line2": "2 59633  43.0047 226.4316 0002371 278.2703  81.7879 15.27577438122040"
  },
  {
    "name": "STARLINK-31797",
    "noradId": "59634",
    "line1": "1 59634U 24082D   26179.59011780  .00001849  00000+0  76680-4 0  9991",
    "line2": "2 59634  43.0010 233.4230 0001166 280.3511  79.7209 15.27580107121811"
  },
  {
    "name": "STARLINK-31798",
    "noradId": "59635",
    "line1": "1 59635U 24082E   26179.49146955  .00001532  00000+0  65204-4 0  9993",
    "line2": "2 59635  43.0017 234.4054 0001515 278.6630  81.4050 15.27579060121757"
  },
  {
    "name": "STARLINK-31802",
    "noradId": "59636",
    "line1": "1 59636U 24082F   26179.48378976 -.00004129  00000+0 -14061-3 0  9994",
    "line2": "2 59636  43.0006 234.3499 0001653 287.5022  72.5649 15.27572987121751"
  },
  {
    "name": "STARLINK-31791",
    "noradId": "59637",
    "line1": "1 59637U 24082G   26179.51316826  .00000368  00000+0  22882-4 0  9995",
    "line2": "2 59637  43.0014 233.7030 0001305 274.1509  85.9193 15.27576172121764"
  },
  {
    "name": "STARLINK-31727",
    "noradId": "59638",
    "line1": "1 59638U 24082H   26179.56071464  .00001165  00000+0  51863-4 0  9994",
    "line2": "2 59638  43.0004 234.0611 0001407 280.3250  79.7443 15.27575959121815"
  },
  {
    "name": "STARLINK-31807",
    "noradId": "59639",
    "line1": "1 59639U 24082J   26179.48761687  .00002642  00000+0  10550-3 0  9997",
    "line2": "2 59639  43.0015 234.3761 0001652 286.3180  73.7490 15.27578601121753"
  }
]