OBJECT_NAME,OBJECT_ID,EPOCH,MEAN_MOTION,ECCENTRICITY,INCLINATION,RA_OF_ASC_NODE,ARG_OF_PERICENTER,MEAN_ANOMALY,EPHEMERIS_TYPE,CLASSIFICATION_TYPE,NORAD_CAT_ID,ELEMENT_SET_NO,REV_AT_EPOCH,BSTAR,MEAN_MOTION_DOT,MEAN_MOTION_DDOT
STARLINK-31770,2024-080A,2026-06-28T20:59:32.129088,15.27572813,.00014802,43.0020,130.2800,269.7663,90.3019,0,U,59601,999,12274,.97842055E-4,.2431E-4,0
STARLINK-31778,2024-080B,2026-06-28T13:11:17.052288,15.27578786,.00009734,43.0008,128.6792,264.1557,95.9184,0,U,59602,999,12152,.6466142E-5,-.84E-6,0
STARLINK-31776,2024-080C,2026-06-28T22:31:07.533696,15.27570495,.00011938,43.0009,133.3531,211.8399,148.2381,0,U,59603,999,12150,.63686319E-4,.149E-4,0
STARLINK-31765,2024-080D,2026-06-28T21:51:48.490560,15.27581863,.0001001,42.9980,126.2277,211.6517,148.4275,0,U,59604,999,12158,.14212704E-4,.129E-5,0
STARLINK-31767,2024-080E,2026-06-28T20:48:26.743680,15.27564088,.00015557,43.0038,130.2238,285.0489,75.0190,0,U,59605,999,12153,.52241267E-4,.1175E-4,0
STARLINK-31782,2024-080F,2026-06-28T22:45:55.752480,15.27576269,.00011755,42.9990,133.4282,257.3547,102.7173,0,U,59606,999,12150,.31965157E-4,.618E-5,0
STARLINK-31755,2024-080G,2026-06-28T21:17:19.658112,15.27572988,.00007334,43.0011,133.8315,244.2500,115.8276,0,U,59607,999,12149,.2892238E-4,.534E-5,0
STARLINK-31585,2024-080H,2026-06-28T13:18:30.129696,15.27556141,.00007782,43.0020,127.8543,251.8743,108.2024,0,U,59608,999,12154,-.9164356E-4,-.2781E-4,0
STARLINK-31667,2024-080J,2026-06-28T21:14:48.657696,15.27570326,.00008596,43.0030,126.0339,270.9059,89.1695,0,U,59609,999,12158,.13629511E-4,.113E-5,0
STARLINK-31729,2024-080K,2026-06-28T20:54:40.000320,15.27572252,.00007912,43.0007,126.7927,264.1761,95.9001,0,U,59610,999,12157,-.34957159E-4,-.1223E-4,0
STARLINK-31448,2024-080L,2026-06-28T03:16:41.692224,15.27589754,.00013811,43.0030,130.7400,280.3013,79.7683,0,U,59611,999,12146,.30809725E-3,.8228E-4,0
STARLINK-31748,2024-080M,2026-06-28T21:38:53.075616,15.27565795,.00014223,43.0060,126.1709,277.1900,82.8790,0,U,59612,999,12275,.69119815E-4,.1639E-4,0
STARLINK-31746,2024-080N,2026-06-28T21:22:51.798720,15.27565995,.00009328,43.0010,133.8331,262.5160,97.5585,0,U,59613,999,12149,.10404071E-3,.2601E-4,0
STARLINK-31762,2024-080P,2026-06-28T22:17:01.481568,15.27577981,.00020392,43.0035,129.8238,291.7630,68.3005,0,U,59614,999,12154,.62286762E-4,.1452E-4,0
STARLINK-31768,2024-080R,2026-06-28T22:13:19.925184,15.27581100,.0002303,43.0014,129.8006,271.2926,88.7662,0,U,59616,999,12154,.13801164E-3,.3537E-4,0
STARLINK-31769,2024-080S,2026-06-28T21:05:04.196256,15.27571827,.00013014,43.0003,130.3039,267.7375,92.3327,0,U,59617,999,12153,.59418187E-4,.1373E-4,0
STARLINK-31784,2024-080T,2026-06-28T22:36:40.502016,15.27574916,.00011632,43.0007,133.3806,264.1936,95.8783,0,U,59618,999,12150,.4753362E-5,-.131E-5,0
STARLINK-31777,2024-080U,2026-06-28T22:42:13.857408,15.27573064,.00011922,43.0026,133.4118,256.8387,103.2331,0,U,59619,999,12150,.29025825E-4,.537E-5,0
STARLINK-31758,2024-080W,2026-06-28T13:31:24.183840,15.27594868,.00005393,43.0020,127.9195,295.0262,65.0533,0,U,59621,999,12153,.19861721E-3,.521E-4,0
STARLINK-31774,2024-080X,2026-06-28T03:25:59.408544,15.27576093,.00021403,43.0035,130.7866,275.1596,84.9012,0,U,59622,999,12146,.42388234E-4,.904E-5,0
STARLINK-31763,2024-080Y,2026-06-28T21:10:37.305408,15.27570350,.00010431,43.0016,130.3333,256.9905,103.0831,0,U,59623,999,12153,.4651429E-4,.1018E-4,0
STARLINK-31749,2024-082A,2026-06-28T12:07:55.275168,15.27542606,.00009074,42.9980,233.6497,286.1754,73.8998,0,U,59631,999,12196,-.78064334E-4,-.2407E-4,0
STARLINK-31781,2024-082B,2026-06-28T19:06:03.594816,15.27575279,.00011895,43.0038,218.2281,274.2861,85.7855,0,U,59632,999,12200,.37444693E-4,.768E-5,0
STARLINK-31541,2024-082C,2026-06-28T13:58:13.328544,15.27577438,.00023715,43.0047,226.4316,278.2703,81.7879,0,U,59633,999,12204,-.99058341E-4,-.2987E-4,0
STARLINK-31797,2024-082D,2026-06-28T14:09:46.177920,15.27580107,.00011666,43.0010,233.4230,280.3511,79.7209,0,U,59634,999,12181,.76680404E-4,.1849E-4,0
STARLINK-31798,2024-082E,2026-06-28T11:47:42.969120,15.27579060,.00015153,43.0017,234.4054,278.6630,81.4050,0,U,59635,999,12175,.65204408E-4,.1532E-4,0
STARLINK-31802,2024-082F,2026-06-28T11:36:39.435264,15.27572987,.00016535,43.0006,234.3499,287.5022,72.5649,0,U,59636,999,12175,-.14060708E-3,-.4129E-4,0
STARLINK-31791,2024-082G,2026-06-28T12:18:57.737664,15.27576172,.00013059,43.0014,233.7030,274.1509,85.9193,0,U,59637,999,12176,.22881711E-4,.368E-5,0
STARLINK-31727,2024-082H,2026-06-28T13:27:25.744896,15.27575959,.00014079,43.0004,234.0611,280.3250,79.7443,0,U,59638,999,12181,.51862981E-4,.1165E-4,0
STARLINK-31807,2024-082J,2026-06-28T11:42:10.097568,15.27578601,.00016525,43.0015,234.3761,286.3180,73.7490,0,U,59639,999,12175,.10550017E-3,.2642E-4,0
